STARLINK-36532          
1 67628U 26020M   26047.61480350  .00825500  00000+0  34987-2 0  9997
2 67628  42.9969 269.9220 0003247 251.9859 108.0659 15.82404280  2763
STARLINK-36367          
1 67629U 26020N   26045.97398618  .00321714  00000+0  15198-2 0  9991
2 67629  42.9980 279.9878 0004785 325.2326  34.8233 15.81353248  2501
STARLINK-36416          
1 67630U 26020P   26047.63524318  .00492071  00000+0  28238-2 0  9990
2 67630  42.9963 270.0892 0002669 280.5552  79.5017 15.76597851  2763
STARLINK-36527          
1 67631U 26020Q   26047.61300521  .00814249  00000+0  32265-2 0  9997
2 67631  42.9952 269.9076 0009411 246.3737 113.6148 15.83841795  2762
STARLINK-36633          
1 67632U 26020R   26046.66596506  .00406790  00000+0  18325-2 0  9991
2 67632  42.9965 275.7114 0001692 243.8503 116.2195 15.82162149  2614
STARLINK-36637          
1 67633U 26020S   26047.06280776  .00109655  00000+0  66809-3 0  9997
2 67633  42.9971 273.5375 0002423 249.6646 110.3963 15.76350832  2677
STARLINK-36617          
1 67634U 26020T   26047.61169475  .00670469  00000+0  28766-2 0  9996
2 67634  42.9970 269.8999 0002934 257.8917 102.1626 15.82534060  2765
STARLINK-36627          
1 67635U 26020U   26047.62648344  .00553936  00000+0  31503-2 0  9997
2 67635  42.9966 270.0181 0002619 248.6930 111.3660 15.76631877  2768
STARLINK-36624          
1 67636U 26020V   26046.91535726  .00186568  00000+0  86801-3 0  9993
2 67636  42.9968 274.1378 0001409 272.2251  87.8460 15.82054955  2655
STARLINK-36610          
1 67637U 26020W   26047.62867295  .00299369  00000+0  17636-2 0  9995
2 67637  42.9975 270.0345 0002401 267.6481  92.4114 15.76539845  2768
STARLINK-36599          
1 67638U 26020X   26047.10247798  .00241826  00000+0  11207-2 0  9992
2 67638  42.9967 272.9569 0001697 264.0547  96.0131 15.81987698  2688
STARLINK-36595          
1 67639U 26020Y   26047.10169187  .00276894  00000+0  12767-2 0  9993
2 67639  42.9964 272.9521 0001729 320.1449  39.9296 15.82003085  2683
