CCSDS_OMM_VERS = 2.0
CREATION_DATE  = 
ORIGINATOR     = 

OBJECT_NAME    = STARLINK-36532
OBJECT_ID      = 2026-020M
CENTER_NAME    = EARTH
REF_FRAME      = TEME
TIME_SYSTEM    = UTC
MEAN_ELEMENT_THEORY = SGP/SGP4

EPOCH          = 2026-02-16T14:45:19.022400
MEAN_MOTION    = 15.82404280
ECCENTRICITY   = .00032475
INCLINATION    = 42.9969
RA_OF_ASC_NODE = 269.9220
ARG_OF_PERICENTER = 251.9859
MEAN_ANOMALY   = 108.0659

EPHEMERIS_TYPE = 0
CLASSIFICATION_TYPE = U
NORAD_CAT_ID   = 67628
ELEMENT_SET_NO = 999
REV_AT_EPOCH   = 276
BSTAR          = .34986728E-2
MEAN_MOTION_DOT = .8255E-2
MEAN_MOTION_DDOT = 0

CCSDS_OMM_VERS = 2.0
CREATION_DATE  = 
ORIGINATOR     = 

OBJECT_NAME    = STARLINK-36367
OBJECT_ID      = 2026-020N
CENTER_NAME    = EARTH
REF_FRAME      = TEME
TIME_SYSTEM    = UTC
MEAN_ELEMENT_THEORY = SGP/SGP4

EPOCH          = 2026-02-14T23:22:32.405952
MEAN_MOTION    = 15.81353248
ECCENTRICITY   = .0004785
INCLINATION    = 42.9980
RA_OF_ASC_NODE = 279.9878
ARG_OF_PERICENTER = 325.2326
MEAN_ANOMALY   = 34.8233

EPHEMERIS_TYPE = 0
CLASSIFICATION_TYPE = U
NORAD_CAT_ID   = 67629
ELEMENT_SET_NO = 999
REV_AT_EPOCH   = 250
BSTAR          = .15198E-2
MEAN_MOTION_DOT = .321714E-2
MEAN_MOTION_DDOT = 0

CCSDS_OMM_VERS = 2.0
CREATION_DATE  = 
ORIGINATOR     = 

OBJECT_NAME    = STARLINK-36416
OBJECT_ID      = 2026-020P
CENTER_NAME    = EARTH
REF_FRAME      = TEME
TIME_SYSTEM    = UTC
MEAN_ELEMENT_THEORY = SGP/SGP4

EPOCH          = 2026-02-16T15:14:45.010752
MEAN_MOTION    = 15.76597851
ECCENTRICITY   = .0002669
INCLINATION    = 42.9963
RA_OF_ASC_NODE = 270.0892
ARG_OF_PERICENTER = 280.5552
MEAN_ANOMALY   = 79.5017

EPHEMERIS_TYPE = 0
CLASSIFICATION_TYPE = U
NORAD_CAT_ID   = 67630
ELEMENT_SET_NO = 999
REV_AT_EPOCH   = 276
BSTAR          = .28238469E-2
MEAN_MOTION_DOT = .492071E-2
MEAN_MOTION_DDOT = 0

CCSDS_OMM_VERS = 2.0
CREATION_DATE  = 
ORIGINATOR     = 

OBJECT_NAME    = STARLINK-36527
OBJECT_ID      = 2026-020Q
CENTER_NAME    = EARTH
REF_FRAME      = TEME
TIME_SYSTEM    = UTC
MEAN_ELEMENT_THEORY = SGP/SGP4

EPOCH          = 2026-02-16T14:42:43.650144
MEAN_MOTION    = 15.83841795
ECCENTRICITY   = .00094116
INCLINATION    = 42.9952
RA_OF_ASC_NODE = 269.9076
ARG_OF_PERICENTER = 246.3737
MEAN_ANOMALY   = 113.6148

EPHEMERIS_TYPE = 0
CLASSIFICATION_TYPE = U
NORAD_CAT_ID   = 67631
ELEMENT_SET_NO = 999
REV_AT_EPOCH   = 276
BSTAR          = .32264523E-2
MEAN_MOTION_DOT = .814249E-2
MEAN_MOTION_DDOT = 0

CCSDS_OMM_VERS = 2.0
CREATION_DATE  = 
ORIGINATOR     = 

OBJECT_NAME    = STARLINK-36633
OBJECT_ID      = 2026-020R
CENTER_NAME    = EARTH
REF_FRAME      = TEME
TIME_SYSTEM    = UTC
MEAN_ELEMENT_THEORY = SGP/SGP4

EPOCH          = 2026-02-15T15:58:59.381184
MEAN_MOTION    = 15.82162149
ECCENTRICITY   = .0001692
INCLINATION    = 42.9965
RA_OF_ASC_NODE = 275.7114
ARG_OF_PERICENTER = 243.8503
MEAN_ANOMALY   = 116.2195

EPHEMERIS_TYPE = 0
CLASSIFICATION_TYPE = U
NORAD_CAT_ID   = 67632
ELEMENT_SET_NO = 999
REV_AT_EPOCH   = 261
BSTAR          = .18325E-2
MEAN_MOTION_DOT = .40679E-2
MEAN_MOTION_DDOT = 0

CCSDS_OMM_VERS = 2.0
CREATION_DATE  = 
ORIGINATOR     = 

OBJECT_NAME    = STARLINK-36637
OBJECT_ID      = 2026-020S
CENTER_NAME    = EARTH
REF_FRAME      = TEME
TIME_SYSTEM    = UTC
MEAN_ELEMENT_THEORY = SGP/SGP4

EPOCH          = 2026-02-16T01:30:26.590464
MEAN_MOTION    = 15.76350832
ECCENTRICITY   = .00024232
INCLINATION    = 42.9971
RA_OF_ASC_NODE = 273.5375
ARG_OF_PERICENTER = 249.6646
MEAN_ANOMALY   = 110.3963

EPHEMERIS_TYPE = 0
CLASSIFICATION_TYPE = U
NORAD_CAT_ID   = 67633
ELEMENT_SET_NO = 999
REV_AT_EPOCH   = 267
BSTAR          = .66809389E-3
MEAN_MOTION_DOT = .109655E-2
MEAN_MOTION_DDOT = 0

CCSDS_OMM_VERS = 2.0
CREATION_DATE  = 
ORIGINATOR     = 

OBJECT_NAME    = STARLINK-36617
OBJECT_ID      = 2026-020T
CENTER_NAME    = EARTH
REF_FRAME      = TEME
TIME_SYSTEM    = UTC
MEAN_ELEMENT_THEORY = SGP/SGP4

EPOCH          = 2026-02-16T14:40:50.426400
MEAN_MOTION    = 15.82534060
ECCENTRICITY   = .00029347
INCLINATION    = 42.9970
RA_OF_ASC_NODE = 269.8999
ARG_OF_PERICENTER = 257.8917
MEAN_ANOMALY   = 102.1626

EPHEMERIS_TYPE = 0
CLASSIFICATION_TYPE = U
NORAD_CAT_ID   = 67634
ELEMENT_SET_NO = 999
REV_AT_EPOCH   = 276
BSTAR          = .28766244E-2
MEAN_MOTION_DOT = .670469E-2
MEAN_MOTION_DDOT = 0

CCSDS_OMM_VERS = 2.0
CREATION_DATE  = 
ORIGINATOR     = 

OBJECT_NAME    = STARLINK-36627
OBJECT_ID      = 2026-020U
CENTER_NAME    = EARTH
REF_FRAME      = TEME
TIME_SYSTEM    = UTC
MEAN_ELEMENT_THEORY = SGP/SGP4

EPOCH          = 2026-02-16T15:02:08.169216
MEAN_MOTION    = 15.76631877
ECCENTRICITY   = .00026194
INCLINATION    = 42.9966
RA_OF_ASC_NODE = 270.0181
ARG_OF_PERICENTER = 248.6930
MEAN_ANOMALY   = 111.3660

EPHEMERIS_TYPE = 0
CLASSIFICATION_TYPE = U
NORAD_CAT_ID   = 67635
ELEMENT_SET_NO = 999
REV_AT_EPOCH   = 276
BSTAR          = .31503347E-2
MEAN_MOTION_DOT = .553936E-2
MEAN_MOTION_DDOT = 0

CCSDS_OMM_VERS = 2.0
CREATION_DATE  = 
ORIGINATOR     = 

OBJECT_NAME    = STARLINK-36624
OBJECT_ID      = 2026-020V
CENTER_NAME    = EARTH
REF_FRAME      = TEME
TIME_SYSTEM    = UTC
MEAN_ELEMENT_THEORY = SGP/SGP4

EPOCH          = 2026-02-15T21:58:06.867264
MEAN_MOTION    = 15.82054955
ECCENTRICITY   = .0001409
INCLINATION    = 42.9968
RA_OF_ASC_NODE = 274.1378
ARG_OF_PERICENTER = 272.2251
MEAN_ANOMALY   = 87.8460

EPHEMERIS_TYPE = 0
CLASSIFICATION_TYPE = U
NORAD_CAT_ID   = 67636
ELEMENT_SET_NO = 999
REV_AT_EPOCH   = 265
BSTAR          = .86801E-3
MEAN_MOTION_DOT = .186568E-2
MEAN_MOTION_DDOT = 0

CCSDS_OMM_VERS = 2.0
CREATION_DATE  = 
ORIGINATOR     = 

OBJECT_NAME    = STARLINK-36610
OBJECT_ID      = 2026-020W
CENTER_NAME    = EARTH
REF_FRAME      = TEME
TIME_SYSTEM    = UTC
MEAN_ELEMENT_THEORY = SGP/SGP4

EPOCH          = 2026-02-16T15:05:17.342880
MEAN_MOTION    = 15.76539845
ECCENTRICITY   = .00024016
INCLINATION    = 42.9975
RA_OF_ASC_NODE = 270.0345
ARG_OF_PERICENTER = 267.6481
MEAN_ANOMALY   = 92.4114

EPHEMERIS_TYPE = 0
CLASSIFICATION_TYPE = U
NORAD_CAT_ID   = 67637
ELEMENT_SET_NO = 999
REV_AT_EPOCH   = 276
BSTAR          = .17636034E-2
MEAN_MOTION_DOT = .299369E-2
MEAN_MOTION_DDOT = 0

CCSDS_OMM_VERS = 2.0
CREATION_DATE  = 
ORIGINATOR     = 

OBJECT_NAME    = STARLINK-36599
OBJECT_ID      = 2026-020X
CENTER_NAME    = EARTH
REF_FRAME      = TEME
TIME_SYSTEM    = UTC
MEAN_ELEMENT_THEORY = SGP/SGP4

EPOCH          = 2026-02-16T02:27:34.097472
MEAN_MOTION    = 15.81987698
ECCENTRICITY   = .00016972
INCLINATION    = 42.9967
RA_OF_ASC_NODE = 272.9569
ARG_OF_PERICENTER = 264.0547
MEAN_ANOMALY   = 96.0131

EPHEMERIS_TYPE = 0
CLASSIFICATION_TYPE = U
NORAD_CAT_ID   = 67638
ELEMENT_SET_NO = 999
REV_AT_EPOCH   = 268
BSTAR          = .11206547E-2
MEAN_MOTION_DOT = .241826E-2
MEAN_MOTION_DDOT = 0

CCSDS_OMM_VERS = 2.0
CREATION_DATE  = 
ORIGINATOR     = 

OBJECT_NAME    = STARLINK-36595
OBJECT_ID      = 2026-020Y
CENTER_NAME    = EARTH
REF_FRAME      = TEME
TIME_SYSTEM    = UTC
MEAN_ELEMENT_THEORY = SGP/SGP4

EPOCH          = 2026-02-16T02:26:26.177568
MEAN_MOTION    = 15.82003085
ECCENTRICITY   = .00017299
INCLINATION    = 42.9964
RA_OF_ASC_NODE = 272.9521
ARG_OF_PERICENTER = 320.1449
MEAN_ANOMALY   = 39.9296

EPHEMERIS_TYPE = 0
CLASSIFICATION_TYPE = U
NORAD_CAT_ID   = 67639
ELEMENT_SET_NO = 999
REV_AT_EPOCH   = 268
BSTAR          = .12766575E-2
MEAN_MOTION_DOT = .276894E-2
MEAN_MOTION_DDOT = 0

